{"type": "FeatureCollection", "features": [ {"type": "Feature", "properties": {"norad_id": 36281, "name": "FENGYUN 1C DEB", "group": "fengyun-1c-debris", "lat": 38.95509622058153, "lon": -105.92472492100873, "alt_km": 1027.4809369682225, "timestamp": "2025-12-05T07:38:19.133830+00:00", "meta": {"OBJECT_NAME": "FENGYUN 1C DEB", "OBJECT_ID": "1999-025DXJ", "EPOCH": "2025-12-04T01:25:44.193792", "MEAN_MOTION": 13.60182832, "ECCENTRICITY": 0.02890068, "INCLINATION": 99.2582, "RA_OF_ASC_NODE": 260.4605, "ARG_OF_PERICENTER": 133.3469, "MEAN_ANOMALY": 229.215, "EPHEMERIS_TYPE": 0, "CLASSIFICATION_TYPE": "U", "NORAD_CAT_ID": 36281, "ELEMENT_SET_NO": 999, "REV_AT_EPOCH": 84399, "BSTAR": 0.0042126195, "MEAN_MOTION_DOT": 4.117e-05, "MEAN_MOTION_DDOT": 0}, "tle": {"line1": "1 36281U 99025DXJ 25338.05953928  .00004117  00000+0  42126-2 0  9996", "line2": "2 36281  99.2582 260.4605 0289006 133.3469 229.2150 13.60182832843992"}}, "geometry": {"type": "Point", "coordinates": [-105.92472492100873, 38.95509622058153]}}, {"type": "Feature", "properties": {"norad_id": 36283, "name": "FENGYUN 1C DEB", "group": "fengyun-1c-debris", "lat": -55.56177905783717, "lon": -43.20640502197086, "alt_km": 587.1157697379413, "timestamp": "2025-12-05T07:38:19.133840+00:00", "meta": {"OBJECT_NAME": "FENGYUN 1C DEB", "OBJECT_ID": "1999-025DXL", "EPOCH": "2025-11-28T03:35:45.168576", "MEAN_MOTION": 15.05092252, "ECCENTRICITY": 0.00695379, "INCLINATION": 99.4205, "RA_OF_ASC_NODE": 294.0447, "ARG_OF_PERICENTER": 95.6406, "MEAN_ANOMALY": 265.275, "EPHEMERIS_TYPE": 0, "CLASSIFICATION_TYPE": "U", "NORAD_CAT_ID": 36283, "ELEMENT_SET_NO": 999, "REV_AT_EPOCH": 66446, "BSTAR": 0.0018499593, "MEAN_MOTION_DOT": 0.00027782, "MEAN_MOTION_DDOT": 0}, "tle": {"line1": "1 36283U 99025DXL 25332.14982834  .00027782  00000+0  18500-2 0  9992", "line2": "2 36283  99.4205 294.0447 0069537  95.6406 265.2750 15.05092252664467"}}, "geometry": {"type": "Point", "coordinates": [-43.20640502197086, -55.56177905783717]}}, {"type": "Feature", "properties": {"norad_id": 36644, "name": "FENGYUN 1C DEB", "group": "fengyun-1c-debris", "lat": -77.22143320006236, "lon": -101.83580603036494, "alt_km": 937.5590422833411, "timestamp": "2025-12-05T07:38:19.133850+00:00", "meta": {"OBJECT_NAME": "FENGYUN 1C DEB", "OBJECT_ID": "1999-025DXN", "EPOCH": "2025-11-26T15:39:07.759296", "MEAN_MOTION": 13.59124847, "ECCENTRICITY": 0.02860442, "INCLINATION": 98.4214, "RA_OF_ASC_NODE": 111.4857, "ARG_OF_PERICENTER": 222.436, "MEAN_ANOMALY": 135.4347, "EPHEMERIS_TYPE": 0, "CLASSIFICATION_TYPE": "U", "NORAD_CAT_ID": 36644, "ELEMENT_SET_NO": 999, "REV_AT_EPOCH": 61349, "BSTAR": 0.0017692716, "MEAN_MOTION_DOT": 1.666e-05, "MEAN_MOTION_DDOT": 0}, "tle": {"line1": "1 36644U 99025DXN 25330.65217314  .00001666  00000+0  17693-2 0  9996", "line2": "2 36644  98.4214 111.4857 0286044 222.4360 135.4347 13.59124847613497"}}, "geometry": {"type": "Point", "coordinates": [-101.83580603036494, -77.22143320006236]}}, {"type": "Feature", "properties": {"norad_id": 36647, "name": "FENGYUN 1C DEB", "group": "fengyun-1c-debris", "lat": -11.719580430880518, "lon": 123.80942909032896, "alt_km": 780.6656565571193, "timestamp": "2025-12-05T07:38:19.133861+00:00", "meta": {"OBJECT_NAME": "FENGYUN 1C DEB", "OBJECT_ID": "1999-025DXR", "EPOCH": "2025-12-03T15:55:19.418880", "MEAN_MOTION": 13.88719058, "ECCENTRICITY": 0.02386151, "INCLINATION": 96.1217, "RA_OF_ASC_NODE": 121.4438, "ARG_OF_PERICENTER": 326.4952, "MEAN_ANOMALY": 32.131, "EPHEMERIS_TYPE": 0, "CLASSIFICATION_TYPE": "U", "NORAD_CAT_ID": 36647, "ELEMENT_SET_NO": 999, "REV_AT_EPOCH": 30286, "BSTAR": 0.00299282, "MEAN_MOTION_DOT": 4.507e-05, "MEAN_MOTION_DDOT": 0}, "tle": {"line1": "1 36647U 99025DXR 25337.66341920  .00004507  00000+0  29928-2 0  9999", "line2": "2 36647  96.1217 121.4438 0238615 326.4952  32.1310 13.88719058302862"}}, "geometry": {"type": "Point", "coordinates": [123.80942909032896, -11.719580430880518]}}, {"type": "Feature", "properties": {"norad_id": 36652, "name": "FENGYUN 1C DEB", "group": "fengyun-1c-debris", "lat": -29.67282980386655, "lon": 66.52620040070238, "alt_km": 796.151550249394, "timestamp": "2025-12-05T07:38:19.133871+00:00", "meta": {"OBJECT_NAME": "FENGYUN 1C DEB", "OBJECT_ID": "1999-025DXW", "EPOCH": "2025-12-04T11:31:28.047936", "MEAN_MOTION": 14.22722775, "ECCENTRICITY": 0.0050804, "INCLINATION": 98.9428, "RA_OF_ASC_NODE": 60.5285, "ARG_OF_PERICENTER": 17.6913, "MEAN_ANOMALY": 342.6019, "EPHEMERIS_TYPE": 0, "CLASSIFICATION_TYPE": "U", "NORAD_CAT_ID": 36652, "ELEMENT_SET_NO": 999, "REV_AT_EPOCH": 64207, "BSTAR": 0.0036927, "MEAN_MOTION_DOT": 8.346e-05, "MEAN_MOTION_DDOT": 0}, "tle": {"line1": "1 36652U 99025DXW 25338.48018574  .00008346  00000+0  36927-2 0  9994", "line2": "2 36652  98.9428  60.5285 0050804  17.6913 342.6019 14.22722775642077"}}, "geometry": {"type": "Point", "coordinates": [66.52620040070238, -29.67282980386655]}}, {"type": "Feature", "properties": {"norad_id": 36657, "name": "FENGYUN 1C DEB", "group": "fengyun-1c-debris", "lat": 80.33003891024374, "lon": 25.9259587610218, "alt_km": 593.5356050839464, "timestamp": "2025-12-05T07:38:19.133881+00:00", "meta": {"OBJECT_NAME": "FENGYUN 1C DEB", "OBJECT_ID": "1999-025DYB", "EPOCH": "2025-12-02T08:45:37.134432", "MEAN_MOTION": 14.65384436, "ECCENTRICITY": 0.01060994, "INCLINATION": 99.4117, "RA_OF_ASC_NODE": 125.7813, "ARG_OF_PERICENTER": 98.4012, "MEAN_ANOMALY": 262.9231, "EPHEMERIS_TYPE": 0, "CLASSIFICATION_TYPE": "U", "NORAD_CAT_ID": 36657, "ELEMENT_SET_NO": 999, "REV_AT_EPOCH": 66104, "BSTAR": 0.00095765855, "MEAN_MOTION_DOT": 5.561e-05, "MEAN_MOTION_DDOT": 0}, "tle": {"line1": "1 36657U 99025DYB 25336.36501313  .00005561  00000+0  95766-3 0  9995", "line2": "2 36657  99.4117 125.7813 0106099  98.4012 262.9231 14.65384436661042"}}, "geometry": {"type": "Point", "coordinates": [25.9259587610218, 80.33003891024374]}}, {"type": "Feature", "properties": {"norad_id": 36659, "name": "FENGYUN 1C DEB", "group": "fengyun-1c-debris", "lat": 6.305346893797767, "lon": -18.699989191471442, "alt_km": 934.7209610685131, "timestamp": "2025-12-05T07:38:19.133891+00:00", "meta": {"OBJECT_NAME": "FENGYUN 1C DEB", "OBJECT_ID": "1999-025DYD", "EPOCH": "2025-12-03T17:31:46.824384", "MEAN_MOTION": 13.87351182, "ECCENTRICITY": 0.01360495, "INCLINATION": 99.8537, "RA_OF_ASC_NODE": 340.7271, "ARG_OF_PERICENTER": 98.4924, "MEAN_ANOMALY": 263.1676, "EPHEMERIS_TYPE": 0, "CLASSIFICATION_TYPE": "U", "NORAD_CAT_ID": 36659, "ELEMENT_SET_NO": 999, "REV_AT_EPOCH": 60300, "BSTAR": 0.00086325838, "MEAN_MOTION_DOT": 1.046e-05, "MEAN_MOTION_DDOT": 0}, "tle": {"line1": "1 36659U 99025DYD 25337.73040306  .00001046  00000+0  86326-3 0  9995", "line2": "2 36659  99.8537 340.7271 0136049  98.4924 263.1676 13.87351182603004"}}, "geometry": {"type": "Point", "coordinates": [-18.699989191471442, 6.305346893797767]}}, {"type": "Feature", "properties": {"norad_id": 36664, "name": "FENGYUN 1C DEB", "group": "fengyun-1c-debris", "lat": -21.391665439753734, "lon": -179.2502133514742, "alt_km": 814.9498472580499, "timestamp": "2025-12-05T07:38:19.133901+00:00", "meta": {"OBJECT_NAME": "FENGYUN 1C DEB", "OBJECT_ID": "1999-025DYJ", "EPOCH": "2025-12-03T20:50:14.182080", "MEAN_MOTION": 14.17950861, "ECCENTRICITY": 0.0173433, "INCLINATION": 98.6052, "RA_OF_ASC_NODE": 2.7444, "ARG_OF_PERICENTER": 125.1301, "MEAN_ANOMALY": 236.6268, "EPHEMERIS_TYPE": 0, "CLASSIFICATION_TYPE": "U", "NORAD_CAT_ID": 36664, "ELEMENT_SET_NO": 999, "REV_AT_EPOCH": 63625, "BSTAR": 0.00015526, "MEAN_MOTION_DOT": 3.27e-06, "MEAN_MOTION_DDOT": 0}, "tle": {"line1": "1 36664U 99025DYJ 25337.86821970  .00000327  00000+0  15526-3 0  9994", "line2": "2 36664  98.6052   2.7444 0173433 125.1301 236.6268 14.17950861636259"}}, "geometry": {"type": "Point", "coordinates": [-179.2502133514742, -21.391665439753734]}}, {"type": "Feature", "properties": {"norad_id": 36668, "name": "FENGYUN 1C DEB", "group": "fengyun-1c-debris", "lat": -73.54340913202489, "lon": 139.09211980494632, "alt_km": 811.879789111551, "timestamp": "2025-12-05T07:38:19.133911+00:00", "meta": {"OBJECT_NAME": "FENGYUN 1C DEB", "OBJECT_ID": "1999-025DYN", "EPOCH": "2025-12-02T19:02:55.094208", "MEAN_MOTION": 14.15355053, "ECCENTRICITY": 0.00511066, "INCLINATION": 98.6098, "RA_OF_ASC_NODE": 347.5122, "ARG_OF_PERICENTER": 254.5059, "MEAN_ANOMALY": 105.0468, "EPHEMERIS_TYPE": 0, "CLASSIFICATION_TYPE": "U", "NORAD_CAT_ID": 36668, "ELEMENT_SET_NO": 999, "REV_AT_EPOCH": 57277, "BSTAR": 0.00077081023, "MEAN_MOTION_DOT": 1.478e-05, "MEAN_MOTION_DDOT": 0}, "tle": {"line1": "1 36668U 99025DYN 25336.79369322  .00001478  00000+0  77081-3 0  9999", "line2": "2 36668  98.6098 347.5122 0051106 254.5059 105.0468 14.15355053572772"}}, "geometry": {"type": "Point", "coordinates": [139.09211980494632, -73.54340913202489]}}, {"type": "Feature", "properties": {"norad_id": 36678, "name": "FENGYUN 1C DEB", "group": "fengyun-1c-debris", "lat": 79.87566863172653, "lon": -163.32264574028622, "alt_km": 738.8324726897135, "timestamp": "2025-12-05T07:38:19.133921+00:00", "meta": {"OBJECT_NAME": "FENGYUN 1C DEB", "OBJECT_ID": "1999-025DYY", "EPOCH": "2025-11-26T04:26:16.761408", "MEAN_MOTION": 14.37944691, "ECCENTRICITY": 0.01523469, "INCLINATION": 98.2901, "RA_OF_ASC_NODE": 313.1233, "ARG_OF_PERICENTER": 42.409, "MEAN_ANOMALY": 318.8754, "EPHEMERIS_TYPE": 0, "CLASSIFICATION_TYPE": "U", "NORAD_CAT_ID": 36678, "ELEMENT_SET_NO": 999, "REV_AT_EPOCH": 64751, "BSTAR": 0.00045851479, "MEAN_MOTION_DOT": 1.539e-05, "MEAN_MOTION_DDOT": 0}, "tle": {"line1": "1 36678U 99025DYY 25330.18491622  .00001539  00000+0  45851-3 0  9994", "line2": "2 36678  98.2901 313.1233 0152346  42.4090 318.8754 14.37944691647514"}}, "geometry": {"type": "Point", "coordinates": [-163.32264574028622, 79.87566863172653]}}]}